[{"OBJECT_NAME":"KUIPER-00141","OBJECT_ID":"2025-228V","EPOCH":"2026-03-09T03:25:37.959744","MEAN_MOTION":14.79912768,"ECCENTRICITY":0.00010182,"INCLINATION":51.9043,"RA_OF_ASC_NODE":343.1046,"ARG_OF_PERICENTER":89.0033,"MEAN_ANOMALY":271.1047,"EPHEMERIS_TYPE":0,"CLASSIFICATION_TYPE":"U","NORAD_CAT_ID":65966,"ELEMENT_SET_NO":999,"REV_AT_EPOCH":2342,"BSTAR":0.00023919972,"MEAN_MOTION_DOT":1.602e-5,"MEAN_MOTION_DDOT":0},{"OBJECT_NAME":"YAOGAN-11 DEB","OBJECT_ID":"2010-047E","EPOCH":"2026-03-08T16:31:19.056000","MEAN_MOTION":14.45539551,"ECCENTRICITY":0.01693465,"INCLINATION":98.095,"RA_OF_ASC_NODE":156.6691,"ARG_OF_PERICENTER":185.8717,"MEAN_ANOMALY":174.0494,"EPHEMERIS_TYPE":0,"CLASSIFICATION_TYPE":"U","NORAD_CAT_ID":38175,"ELEMENT_SET_NO":999,"REV_AT_EPOCH":24845,"BSTAR":0.0013687272,"MEAN_MOTION_DOT":5.722e-5,"MEAN_MOTION_DDOT":0}]
